#dP2024 10 30  6  0  0.00000000      96 __u+U IGS20 EXT  IAC
## 2338 280800.00000000   900.00000000 60613 0.2500000000000
+   53   G02G03G04G05G06G07G08G09G10G11G12G13G14G15G16G17G18
+        G19G20G21G22G23G24G25G26G27G28G29G30G31G32R01R02R03
+        R04R05R07R08R09R11R12R14R15R16R17R18R19R20R21R22R24
+        R25R26  0  0  0  0  0  0  0  0  0  0  0  0  0  0  0
+          0  0  0  0  0  0  0  0  0  0  0  0  0  0  0  0  0
++         8  8  7  7  8  8  7  7  8  7  8  6  7  7  7  7  7
++         8  7  6  8  7  7  7  8  7  7  8  8  8  6  9  8  7
++         7  8  7  8  8  8 10  8  7  8  8  7  8 10  9  8  8
++         8  7  0  0  0  0  0  0  0  0  0  0  0  0  0  0  0
++         0  0  0  0  0  0  0  0  0  0  0  0  0  0  0  0  0
%c M  cc GPS ccc cccc cccc cccc cccc ccccc ccccc ccccc ccccc
%c cc cc ccc ccc cccc cccc cccc cccc ccccc ccccc ccccc ccccc
%f  0.0000000  0.000000000  0.00000000000  0.000000000000000
%f  0.0000000  0.000000000  0.00000000000  0.000000000000000
%i    0    0    0    0      0      0      0      0         0
%i    0    0    0    0      0      0      0      0         0
/* IAC                                ULTRA-RAPID PREDICTION
/* S/V CLOCKS ARE ALIGNED TO GNSS TIME                      
/* G:C1WC2W R:C1PC2P E:C1XC5X C:C2IC6I J:C1CC2S             
/* PCV:IGS20_2317 OL/AL:FES2004  NONE     YN ORB:CoN CLK:CoN
*  2024 10 30 17  0  0.00000000
PG02 -19883.672868  -8927.431416  15887.965917   -325.644723
PG03 -17160.462251   3902.161575  19691.626308    585.873465
PG04 -26635.024943   -635.582549     91.692619    470.911218
PG05  10032.734454  12448.167929 -21377.665025   -191.452287
PG06   2745.241441  22678.914917  13525.466013    -77.040924
PG07 -13297.667713   7352.571142 -21256.834325    -23.463997
PG08 -23173.330805  -7052.007688 -11510.447569    399.724275
PG09 -23826.398128   7437.113252  -9265.289515    421.606043
PG10   9569.370998 -24062.084555   5239.978652   -177.328670
PG11  12499.684741  23473.904397     41.617860   -747.502804
PG12  16308.987401   1334.168503  20627.646027   -548.735023
PG13  16280.189897  13456.063526 -16481.278385    683.860356
PG14 -12596.076754  23209.008949   1256.885527    529.045115
PG15  23781.639184   4557.407051 -11611.958108    221.890825
PG16  -5531.369283 -16772.659730 -20042.528044   -141.249276
PG17 -11058.298744  13609.258457  20420.593753    577.106854
PG18  11892.658183  -9133.184271 -21883.241260   -659.471178
PG19    263.205114  15110.058297  21711.680671    556.851265
PG20   3481.248660  21856.107931 -14714.551685    369.188670
PG21 -20164.716002 -14668.374606  10958.404951     98.607633
PG22  -7967.636520  23725.918459   9736.675092    -75.467573
PG23  16322.853749 -19008.479433  -8422.064614    352.791287
PG24  20218.886231  11123.543309  13039.054158   -482.765137
PG25  18189.032385 -12631.607546  14121.522843    499.304441
PG26   1554.559091 -23863.282822 -11307.037054     42.514061
PG27 -14050.457128 -12941.472227 -18924.994960    -34.733619
PG28  -1630.270281 -21901.419162  14921.329352   -463.167148
PG29  24987.414135  -4136.039528  -8251.183756   -567.510643
PG30  -5467.015562  17763.427528 -18730.180979   -292.000596
PG31  -9831.457350 -23975.861106   4586.027736   -222.583820
PG32   7502.914707 -14762.618082  20940.956126   -580.334056
PR01 -11589.145997  14120.508027 -17805.741015    102.785761
PR02   5546.422644   9337.605826 -23037.957232    -25.424211
PR03  20428.676857   -396.194938 -15183.676916    110.420883
PR04  23710.839464  -9350.159803    672.169347    261.689358
PR05  14412.257586 -13417.241329  16201.159944    139.950176
PR07 -20759.840637    652.299989  14883.893810     93.995394
PR08 -23626.632161   9639.788829   -794.519429     -6.351559
PR09  -3384.558781 -22331.315786 -11918.283964    217.702339
PR11 -11273.633943   9566.507248 -20771.559233      8.030508
PR12  -6186.013537  24110.900113  -5583.710022     46.660082
PR14   9838.377730   7755.935286  22226.975380     27.147522
PR15  11307.338465 -11282.578983  19907.170293     74.566489
PR16   6169.327325 -24077.018723   5825.958289     30.375392
PR17  20958.142923  12620.550815  -7294.112464    135.435121
PR18  15632.220305   1121.930856 -20089.539721    169.453812
PR19   4492.860623  -9835.926673 -23094.438785   -296.709925
PR20 -13450.779742 -18600.125372 -11144.266044   -121.214363
PR21 -20773.429594 -13289.453849   6458.455011   -147.151899
PR22 -15139.451025   -210.526225  20561.344823      5.304635
PR24  14487.581097  18126.604042  10644.812734    -78.104392
PR25 -20524.656215 -13029.817200   7689.739132    -85.627152
PR26 -23823.223668   9054.474177    870.338524   -502.170509
*  2024 10 30 17 15  0.00000000
PG02 -20750.353053 -10292.063205  13779.012355   -325.637186
PG03 -16140.187896   1785.460860  20827.445873    585.883425
PG04 -26466.374290   -867.340457   2941.347665    470.917199
PG05   8990.912829  14561.685265 -20473.890157   -191.453461
PG06   1758.596140  21335.724728  15719.048970    -77.066520
PG07 -14658.711069   5214.035166 -21039.150781    -23.461456
PG08 -21777.097234  -7369.582196 -13791.987048    399.734034
PG09 -24736.810225   7266.679128  -6612.976443    421.621135
PG10   9939.526183 -24334.983200   2356.692308   -177.341208
PG11  12214.456767  23449.222635   2897.994407   -747.504871
PG12  15087.549573   3468.974227  21292.868814   -548.737411
PG13  14342.358201  13388.743885 -18245.242315    683.861797
PG14 -12864.024793  23036.243845  -1580.849859    529.052598
PG15  22474.985489   5071.765540 -13869.755299    221.894847
PG16  -4263.682322 -18531.981544 -18696.431508   -141.240342
PG17 -13233.408497  13491.024185  19155.683139    577.094468
PG18  13216.082135  -7001.534657 -21929.676874   -659.471984
PG19  -2244.416964  14946.211400  21673.006935    556.855363
PG20   2829.465490  23293.036543 -12507.998375    369.188401
PG21 -20683.589715 -15569.625117   8450.153931     98.606892
PG22  -8629.482204  24380.269904   7117.919438    -75.470378
PG23  16007.464188 -17915.034496 -11032.252139    352.798532
PG24  20895.070630  12394.779692  10738.525903   -482.763614
PG25  17598.075119 -10917.133241  16133.084385    499.304261
PG26   2291.596494 -24799.899991  -8826.735122     42.505120
PG27 -11889.490970 -13153.061465 -20198.538329    -34.733688
PG28   -457.076609 -20497.551714  16869.172102   -463.178260
PG29  25761.333505  -3902.396538  -5532.828305   -567.508148
PG30  -6813.254760  15948.916388 -19900.913477   -291.993760
PG31  -9205.859008 -23516.386072   7338.777213   -222.583236
PG32   9802.573652 -14798.805964  19911.712286   -580.329692
PR01 -13412.941711  15084.878982 -15596.497489    102.786952
PR02   2913.308096  10442.032176 -23053.428636    -25.424294
PR03  18525.008123    303.594732 -17457.281000    110.421602
PR04  23531.446025  -9469.917671  -2554.721382    261.691030
PR05  16067.575229 -14252.883536  13740.619477    139.950742
PR07 -18900.098272    -13.590402  17196.330094     93.996108
PR08 -23474.447966   9757.420915   2421.043000     -6.351527
PR09  -3365.990909 -23630.022901  -9095.808676    217.704330
PR11 -10943.654791   6947.591427 -21956.234498      8.029727
PR12  -5961.359880  23250.660549  -8631.052798     46.660534
PR14   9603.498931  10423.033921  21213.909840     27.147615
PR15  10967.897924  -8765.996053  21315.097196     74.566314
PR16   5923.722957 -23193.066896   8871.320429     30.375751
PR17  21634.920738  12900.779052  -4167.509609    135.438157
PR18  17578.317809   2489.872630 -18274.990294    169.455579
PR19   6695.479290  -8000.572364 -23269.920062   -296.710953
PR20 -12378.008758 -17469.084669 -13876.060260   -121.214890
PR21 -21367.609376 -13504.311170   3292.857369   -147.154728
PR22 -17073.068230  -1681.812855  18910.750015      5.294284
PR24  13384.227602  17134.316579  13383.964146    -78.105713
PR25 -21198.496392 -13401.364798   4594.240827    -85.622437
PR26 -23479.443741   9083.616411   4073.732119   -502.135444
EOF
